OSCAR 7 (AO-7)          
1 07530U 74089B   24081.54025794 -.00000024  00000+0  13901-3 0  9997
2 07530 101.9763  75.3759 0011873 251.3017 225.2688 12.53673339258054
PHASE 3B (AO-10)        
1 14129U 83058B   24077.10911813  .00000138  00000+0  00000+0 0  9995
2 14129  27.4656 353.6554 6032870 253.0118  35.8624  2.05864306278566
UOSAT 2 (UO-11)         
1 14781U 84021B   24081.51397129  .00003123  00000+0  36119-3 0  9999
2 14781  97.6960  53.4948 0008516  17.7708 342.3804 14.86213246135463
LUSAT (LO-19)           
1 20442U 90005G   24081.48705160  .00000447  00000+0  17841-3 0  9990
2 20442  98.8784  69.4732 0012858  83.5469 276.7178 14.33463903785215
EYESAT A (AO-27)        
1 22825U 93061C   24081.61487120  .00000251  00000+0  11401-3 0  9999
2 22825  98.8004 133.4343 0007945 342.1762  17.9141 14.30443302590091
ITAMSAT (IO-26)         
1 22826U 93061D   24081.40681775  .00000262  00000+0  11715-3 0  9999
2 22826  98.7951 133.0860 0008222 326.5083  33.5578 14.30818941590344
RADIO ROSTO (RS-15)     
1 23439U 94085A   24081.57698314 -.00000057  00000+0 -42069-3 0  9992
2 23439  64.8170 185.4508 0152916 160.2082 200.4862 11.27576119203718
JAS-2 (FO-29)           
1 24278U 96046B   24081.57629214  .00000084  00000+0  11914-3 0  9999
2 24278  98.5724  27.7440 0351041  55.2856 308.0825 13.53176256362588
TECHSAT 1B (GO-32)      
1 25397U 98043D   24081.47923500  .00000248  00000+0  12820-3 0  9994
2 25397  98.9120  46.9406 0002278  68.9190 291.2231 14.24002501334939
ISS (ZARYA)             
1 25544U 98067A   24081.87742818  .00020178  00000+0  37064-3 0  9990
2 25544  51.6420  28.1850 0004385 353.2313  61.3532 15.49212544445004
PCSAT (NO-44)           
1 26931U 01043C   24081.50461590  .00000485  00000+0  21498-3 0  9997
2 26931  67.0514 198.0600 0005550 280.0897  79.9578 14.31152422173404
SAUDISAT 1C (SO-50)     
1 27607U 02058C   24081.55487889  .00002113  00000+0  30496-3 0  9997
2 27607  64.5531 130.8051 0034892 152.4224 207.8740 14.78501118143363
CUTE-1 (CO-55)          
1 27844U 03031E   24081.49204366  .00000767  00000+0  35906-3 0  9996
2 27844  98.6803  89.7416 0010551  44.7082 315.4945 14.23124595 75316
CUBESAT XI-IV (CO-57)   
1 27848U 03031J   24081.25163738  .00000611  00000+0  29272-3 0  9998
2 27848  98.6835  89.7971 0010670  59.7139 300.5093 14.22585488 75031
MOZHAYETS 4 (RS-22)     
1 27939U 03042A   24081.59532501  .00002743  00000+0  47081-3 0  9992
2 27939  98.2775 236.4952 0011678 341.9421  85.9377 14.69493240 95283
CUBESAT XI-V            
1 28895U 05043F   24081.62014703  .00003764  00000+0  67800-3 0  9995
2 28895  98.1859 217.4322 0014890 273.5764  86.3737 14.67087454981616
CUTE-1.7+APD II (CO-65) 
1 32785U 08021C   24081.13388369  .00008189  00000+0  74567-3 0  9999
2 32785  97.7461  47.3351 0009178 258.0233 101.9959 14.95390178862313
SEEDS II (CO-66)        
1 32791U 08021J   24081.17482577  .00012500  00000+0  96730-3 0  9994
2 32791  97.6866  53.0272 0004329 200.2001 159.9053 15.01599573863305
YUBILEINY (RS-30)       
1 32953U 08025A   24081.58915735  .00000042  00000+0  23137-3 0  9999
2 32953  82.5035 143.9760 0018040 296.8143  63.1092 12.43137253718102
KKS-1 (KISEKI)          
1 33499U 09002H   24081.50981146  .00002976  00000+0  41696-3 0  9990
2 33499  98.1475 342.1467 0009869  58.1073 302.1096 14.78258897815168
SWISSCUBE               
1 35932U 09051B   24081.44251561  .00001906  00000+0  41912-3 0  9995
2 35932  98.4843 322.9711 0006323 223.4300 136.6401 14.58671407769762
BEESAT-1                
1 35933U 09051C   24081.43271695  .00001660  00000+0  36829-3 0  9993
2 35933  98.4769 323.9810 0004493 236.3999 123.6771 14.58457565769835
ITUPSAT1                
1 35935U 09051E   24080.63017125  .00001493  00000+0  33955-3 0  9993
2 35935  98.4870 322.9925 0006713 248.5079 111.5403 14.57440436769361
XIWANG-1 (HOPE-1)       
1 36122U 09072B   24081.40544442 -.00000030  00000+0  34829-4 0  9997
2 36122 100.2840  42.0215 0006998 308.4393  51.6091 13.16397087685407
JUGNU                   
1 37839U 11058B   24081.63344522  .00000725  00000+0  24182-3 0  9992
2 37839  19.9590 233.3042 0018875  50.6015  38.2892 14.13144212643219
SRMSAT                  
1 37841U 11058D   24081.38015574  .00000634  00000+0  20221-3 0  9998
2 37841  19.9726 327.8431 0011857 209.0710 308.0200 14.11058803642149
M-CUBED & EXP-1 PRIME   
1 37855U 11061F   24081.28974266  .00111587  00000+0  15886-2 0  9998
2 37855 101.6851 211.0121 0073406 254.6994 104.6121 15.52782510679282
STRAND-1                
1 39090U 13009E   24081.48354953  .00000692  00000+0  25291-3 0  9998
2 39090  98.3832 272.1812 0009442 148.5296 211.6457 14.35937431579651
ZACUBE-1 (TSHEPISOSAT)  
1 39417U 13066B   24081.40167803  .00007351  00000+0  78722-3 0  9998
2 39417  97.7248  39.4729 0053853  90.6908 270.0480 14.87898923558528
GOMX-1                  
1 39430U 13066Q   24081.62508835  .00003552  00000+0  60078-3 0  9995
2 39430  97.7464 321.2896 0141714 170.4837 189.9103 14.63489133550055
CUBEBUG-2 (LO-74)       
1 39440U 13066AA  24081.58596310  .00005974  00000+0  72388-3 0  9993
2 39440  97.8055  27.2652 0070696 198.9397 160.9185 14.82194791555353
FUNCUBE-1 (AO-73)       
1 39444U 13066AE  24081.45205824  .00010464  00000+0  10525-2 0  9994
2 39444  97.7106  42.4446 0051776  73.2191 287.4699 14.90386322557032
UWE-3                   
1 39446U 13066AG  24081.34894298  .00006091  00000+0  69807-3 0  9992
2 39446  97.7722  33.0948 0062869 146.5547 213.9663 14.84840162555667
SPROUT                  
1 39770U 14029E   24081.35431738  .00096371  00000+0  37878-2 0  9991
2 39770  98.0057 226.3514 0001477 172.9240 187.2017 15.25269290534171
UNISAT-6                
1 40012U 14033C   24081.41902672  .00006190  00000+0  82702-3 0  9991
2 40012  97.6929 247.5259 0052926 230.6728 128.9786 14.78893707524867
DUCHIFAT-1              
1 40021U 14033M   24081.51233690  .00018044  00000+0  12971-2 0  9990
2 40021  98.0846  61.0793 0014960  43.8630 316.3780 15.04231561530930
QB50P1                  
1 40025U 14033R   24081.43173943  .00011546  00000+0  98254-3 0  9998
2 40025  98.0329  39.4731 0013096  90.1820 270.0902 14.97916480529735
KAITUO 1A               
1 40904U 15049F   24081.58176680  .00041669  00000+0  10588-2 0  9991
2 40904  97.4928  95.8073 0006163 264.2241  95.8302 15.39498914470930
2015-049G               
1 40905U 15049G   24081.53821037  .00014013  00000+0  54289-3 0  9990
2 40905  97.5266  89.8507 0010146 294.2913  65.7265 15.26228440470336
XW-2C                   
1 40906U 15049H   24081.51431258  .00031506  00000+0  87468-3 0  9992
2 40906  97.4867  96.3916 0007178 248.9529 111.0947 15.36817728470987
XW-2D                   
1 40907U 15049J   24081.55532401  .00040489  00000+0  95681-3 0  9995
2 40907  97.4821  98.1864 0005941 230.6258 129.4463 15.41711370471162
LILACSAT-2              
1 40908U 15049K   24081.55209996  .00012408  00000+0  50963-3 0  9990
2 40908  97.5284  89.7450 0010941 302.7676  57.2506 15.24292057470134
XW-2E                   
1 40909U 15049L   24081.16827667  .00917552  40901-3  17961-2 0  9991
2 40909  97.4079 111.2152 0006291 175.6071 184.5264 16.00219639472345
XW-2F                   
1 40910U 15049M   24081.50778787  .00677213  19312-3  18335-2 0  9994
2 40910  97.4248 110.6750 0006489 174.5639 185.5708 15.94236844472230
XW-2B                   
1 40911U 15049N   24081.54623599  .00040111  00000+0  96403-3 0  9993
2 40911  97.4797  98.3877 0005995 233.5387 126.5307 15.41203098471033
E-ST@R-II               
1 41459U 16025D   24081.62779097  .00221020  00000+0  18315-2 0  9995
2 41459  98.1390 321.7914 0046682 186.7331 173.3307 15.68115272435854
AIST-2D (RS-48)         
1 41465U 16026B   24081.59014904  .00272320  31276-4  64948-3 0  9995
2 41465  96.9463 317.2304 0002599 195.3221 164.7979 15.96623145443665
CAS-2T & KS-1Q          
1 41847U 16066G   24081.47648972  .00002748  00000+0  40751-3 0  9995
2 41847  98.4677 153.4229 0356560  81.4760 282.6660 14.40887927386865
ZHUHAI-1 02 (CAS-4B)    
1 42759U 17034B   24081.23327278  .00020374  00000+0  81660-3 0  9990
2 42759  43.0125   2.3154 0010808 132.3420 227.8348 15.24611567373961
ZHUHAI-1 01 (CAS-4A)    
1 42761U 17034D   24081.24182417  .00021944  00000+0  87589-3 0  9998
2 42761  43.0143   0.6786 0009745 135.8379 224.3251 15.24722874373964
MAX VALIER SAT          
1 42778U 17036P   24081.58532283  .00095666  00000+0  10902-2 0  9991
2 42778  97.1178 118.0407 0006973 149.2733 210.8935 15.61909787375802
RADFXSAT (FOX-1B)       
1 43017U 17073E   24081.41933805  .00011313  00000+0  72925-3 0  9997
2 43017  97.5933 320.0830 0215809 226.3983 131.9153 14.91230982342570
DIWATA-2B               
1 43678U 18084H   24081.53065688  .00002909  00000+0  27319-3 0  9999
2 43678  98.0588 237.0448 0008515 328.2053  31.8652 14.94750170293825
ES'HAIL 2               
1 43700U 18090A   24080.75920597  .00000132  00000+0  00000+0 0  9994
2 43700   0.0138 236.0258 0001107 136.9034 104.9647  1.00274250 19472
FOX-1CLIFF (AO-95)      
1 43770U 18099N   24081.40331429  .00008834  00000+0  64331-3 0  9991
2 43770  97.5563 141.1978 0013037 303.8427  56.1558 15.03936601289362
ITASAT                  
1 43786U 18099AE  24081.14441834  .00007193  00000+0  54101-3 0  9992
2 43786  97.5224 140.9463 0015715 294.1738  65.7844 15.02747260289343
JY1SAT (JO-97)          
1 43803U 18099AX  24081.15078964  .00010606  00000+0  74497-3 0  9996
2 43803  97.5322 141.8697 0009087 237.3217 122.7134 15.05271332289449
UWE-4                   
1 43880U 18111E   24081.23429305  .00012947  00000+0  86092-3 0  9998
2 43880  97.6176 347.7224 0016017 313.3051  46.6840 15.07195437286175
JAISAT-1                
1 44419U 19038F   24081.53486148  .00138515  00000+0  17855-2 0  9997
2 44419  97.6844  82.4733 0010060  49.6620 310.5512 15.58487478261400
DUCHIFAT-3              
1 44854U 19089C   24081.52206022  .00020603  00000+0  11430-2 0  9997
2 44854  36.9575 219.9115 0008105  85.8789 274.2883 15.13019183234970
